{
"type": "FeatureCollection",
"name": "file",
"crs": { "type": "name", "properties": { "name": "urn:ogc:def:crs:OGC:1.3:CRS84" } },
"features": [
{ "type": "Feature", "properties": { "Id": 0 }, "geometry": { "type": "LineString", "coordinates": [ [ 776603.280965580488555, 539267.855026308912784 ], [ 776601.571041388553567, 539271.10388227365911 ], [ 776564.294694003183395, 539254.175632772967219 ], [ 776532.082368935341947, 539508.92206757015083 ], [ 776511.209270888590254, 539648.510910757817328 ], [ 776475.98591793468222, 539891.812959865550511 ], [ 776434.674578050500713, 540213.171698543708771 ], [ 776385.753254503360949, 540346.889982905704528 ], [ 776350.964757758774795, 540414.292695348383859 ], [ 776342.267633572570048, 540481.69540779106319 ], [ 776360.749022468342446, 540557.795244419947267 ], [ 776460.765950608998537, 540779.571911166771315 ], [ 776483.595901597640477, 540806.750424248515628 ], [ 776679.281195786083117, 540677.38070197950583 ], [ 776792.343810206046328, 540571.92807122238446 ], [ 776838.003712183213793, 540493.65395354712382 ], [ 776878.674943728139624, 540416.642658304073848 ], [ 776911.181315086316317, 540434.454368637292646 ], [ 776945.468857477768324, 540474.530716887093149 ], [ 777021.613919152296148, 540503.4747461786028 ], [ 777100.430737376911566, 540527.520555128459819 ], [ 777238.07142474676948, 540608.890849014045671 ], [ 777364.179725446039811, 540756.741960178595036 ], [ 777431.582437888602726, 540844.800342563423328 ], [ 777483.765183005481958, 540889.373104017577134 ], [ 777591.392094809096307, 540906.767352389870211 ], [ 777752.288892252952792, 540906.767352389870211 ], [ 777680.537617717171088, 540998.087156344437972 ], [ 777616.396326844347641, 541151.3739701253362 ], [ 777514.408956505358219, 541474.118812970700674 ], [ 777327.556679068598896, 542029.579674078384414 ], [ 777140.704401631606743, 542625.808304808451794 ], [ 777118.621859752689488, 542712.439815256395377 ], [ 777123.717830955632962, 542855.127008935553022 ], [ 777128.813802158460021, 543019.89674449339509 ], [ 777074.45677599508781, 543135.405425090692006 ], [ 777001.4922526354203, 543257.8609336320078 ], [ 776991.055703612044454, 543277.06418383505661 ] ] } }
]
}
